{"fetched_at":"2026-03-30T06:02:59Z","count":15439,"tles":[{"name":"STARLINK-32699","line1":"1 62482U 24254W   26087.83324074  .00039004  00000+0  14183-2 0  9997","line2":"2 62482  43.0069 271.4744 0003248 260.4169  99.6315 15.27602581 70399","category":"Starlink"}]}