{
  "norad_id": 62482,
  "name": "STARLINK-32699",
  "history": [
    {
      "epoch": "2026-03-28T19:59:51.999936Z",
      "apogee_km": 485.2101783513526,
      "perigee_km": 480.7527841188321,
      "latitude_deg": -5.107498476258785e-05,
      "longitude_deg": 145.25966369466937,
      "height_km": 483.13120032186964,
      "semi_major_axis_km": 6861.118481235092,
      "eccentricity": 0.00032483,
      "inclination_deg": 43.0069,
      "raan_deg": 271.4744,
      "arg_perigee_deg": 260.4169,
      "mean_anomaly_deg": 99.6315,
      "mean_motion_rev_day": 15.27602581
    }
  ]
}